{
  "type": "FeatureCollection",
  "features": [
    {
      "type": "Feature",
      "properties": {
        "norad_id": 46435,
        "name": "IRIDIUM 33 DEB",
        "group": "iridium-33-debris",
        "lat": 46.62078624634432,
        "lon": -162.55662511520114,
        "alt_km": 881.516938755889,
        "timestamp": "2025-12-13T18:50:04.816256+00:00",
        "meta_object_name": "IRIDIUM 33 DEB",
        "meta_object_id": "1997-051ABN",
        "meta_epoch": "2025-12-12T20:52:33.908160",
        "meta_mean_motion": 14.32319865,
        "meta_eccentricity": 0.02085953,
        "meta_inclination": 86.2838,
        "meta_ra_of_asc_node": 193.8931,
        "meta_arg_of_pericenter": 275.9535,
        "meta_mean_anomaly": 94.2215,
        "meta_ephemeris_type": 0,
        "meta_classification_type": "U",
        "meta_norad_cat_id": 46435,
        "meta_element_set_no": 999,
        "meta_rev_at_epoch": 7918,
        "meta_bstar": 0.012063551,
        "meta_mean_motion_dot": 0.00041649,
        "meta_mean_motion_ddot": 0,
        "tle_line1": "1 46435U 97051ABN 25346.86983690  .00041649  00000+0  12064-1 0  9990",
        "tle_line2": "2 46435  86.2838 193.8931 0208595 275.9535  94.2215 14.32319865 79188"
      },
      "geometry": {
        "type": "Point",
        "coordinates": [
          -162.55662511520114,
          46.62078624634432
        ]
      }
    },
    {
      "type": "Feature",
      "properties": {
        "norad_id": 46734,
        "name": "IRIDIUM 33 DEB",
        "group": "iridium-33-debris",
        "lat": -85.40309957480923,
        "lon": -51.94658009390683,
        "alt_km": 745.7186628862828,
        "timestamp": "2025-12-13T18:50:04.816266+00:00",
        "meta_object_name": "IRIDIUM 33 DEB",
        "meta_object_id": "1997-051ABR",
        "meta_epoch": "2025-12-13T07:39:56.344032",
        "meta_mean_motion": 14.41895054,
        "meta_eccentricity": 0.00384162,
        "meta_inclination": 86.2642,
        "meta_ra_of_asc_node": 2.6096,
        "meta_arg_of_pericenter": 333.7595,
        "meta_mean_anomaly": 45.1508,
        "meta_ephemeris_type": 0,
        "meta_classification_type": "U",
        "meta_norad_cat_id": 46734,
        "meta_element_set_no": 999,
        "meta_rev_at_epoch": 63019,
        "meta_bstar": 0.001605315,
        "meta_mean_motion_dot": 5.319e-05,
        "meta_mean_motion_ddot": 0,
        "tle_line1": "1 46734U 97051ABR 25347.31940213  .00005319  00000+0  16053-2 0  9994",
        "tle_line2": "2 46734  86.2642   2.6096 0038416 333.7595  45.1508 14.41895054630197"
      },
      "geometry": {
        "type": "Point",
        "coordinates": [
          -51.94658009390683,
          -85.40309957480923
        ]
      }
    },
    {
      "type": "Feature",
      "properties": {
        "norad_id": 46965,
        "name": "IRIDIUM 33 DEB",
        "group": "iridium-33-debris",
        "lat": 59.98862228348325,
        "lon": 153.8638510992389,
        "alt_km": 697.7310016672327,
        "timestamp": "2025-12-13T18:50:04.816280+00:00",
        "meta_object_name": "IRIDIUM 33 DEB",
        "meta_object_id": "1997-051ABX",
        "meta_epoch": "2025-12-09T11:22:29.536608",
        "meta_mean_motion": 14.60256222,
        "meta_eccentricity": 0.0018504,
        "meta_inclination": 86.3353,
        "meta_ra_of_asc_node": 342.1454,
        "meta_arg_of_pericenter": 344.7825,
        "meta_mean_anomaly": 167.4281,
        "meta_ephemeris_type": 0,
        "meta_classification_type": "U",
        "meta_norad_cat_id": 46965,
        "meta_element_set_no": 999,
        "meta_rev_at_epoch": 62220,
        "meta_bstar": 0.0013057124,
        "meta_mean_motion_dot": 6.336e-05,
        "meta_mean_motion_ddot": 0,
        "tle_line1": "1 46965U 97051ABX 25343.47395297  .00006336  00000+0  13057-2 0  9990",
        "tle_line2": "2 46965  86.3353 342.1454 0018504 344.7825 167.4281 14.60256222622205"
      },
      "geometry": {
        "type": "Point",
        "coordinates": [
          153.8638510992389,
          59.98862228348325
        ]
      }
    },
    {
      "type": "Feature",
      "properties": {
        "norad_id": 46971,
        "name": "IRIDIUM 33 DEB",
        "group": "iridium-33-debris",
        "lat": -18.66661496109528,
        "lon": -28.616482289185,
        "alt_km": 575.2621512973483,
        "timestamp": "2025-12-13T18:50:04.816295+00:00",
        "meta_object_name": "IRIDIUM 33 DEB",
        "meta_object_id": "1997-051ACD",
        "meta_epoch": "2025-12-09T17:53:50.411040",
        "meta_mean_motion": 14.9771662,
        "meta_eccentricity": 0.00041979,
        "meta_inclination": 86.3387,
        "meta_ra_of_asc_node": 334.5212,
        "meta_arg_of_pericenter": 335.9126,
        "meta_mean_anomaly": 199.6728,
        "meta_ephemeris_type": 0,
        "meta_classification_type": "U",
        "meta_norad_cat_id": 46971,
        "meta_element_set_no": 999,
        "meta_rev_at_epoch": 64185,
        "meta_bstar": 0.0038941985,
        "meta_mean_motion_dot": 0.00045901,
        "meta_mean_motion_ddot": 0,
        "tle_line1": "1 46971U 97051ACD 25343.74572235  .00045901  00000+0  38942-2 0  9997",
        "tle_line2": "2 46971  86.3387 334.5212 0004197 335.9126 199.6728 14.97716620641853"
      },
      "geometry": {
        "type": "Point",
        "coordinates": [
          -28.616482289185,
          -18.66661496109528
        ]
      }
    },
    {
      "type": "Feature",
      "properties": {
        "norad_id": 46974,
        "name": "IRIDIUM 33 DEB",
        "group": "iridium-33-debris",
        "lat": 45.25176762879674,
        "lon": -78.92561129768778,
        "alt_km": 695.0401014880954,
        "timestamp": "2025-12-13T18:50:04.816306+00:00",
        "meta_object_name": "IRIDIUM 33 DEB",
        "meta_object_id": "1997-051ACG",
        "meta_epoch": "2025-12-13T01:34:59.316384",
        "meta_mean_motion": 14.44392499,
        "meta_eccentricity": 0.00956741,
        "meta_inclination": 86.2983,
        "meta_ra_of_asc_node": 105.1329,
        "meta_arg_of_pericenter": 185.9471,
        "meta_mean_anomaly": 174.0604,
        "meta_ephemeris_type": 0,
        "meta_classification_type": "U",
        "meta_norad_cat_id": 46974,
        "meta_element_set_no": 999,
        "meta_rev_at_epoch": 57513,
        "meta_bstar": 0.0074669983,
        "meta_mean_motion_dot": 0.00027304,
        "meta_mean_motion_ddot": 0,
        "tle_line1": "1 46974U 97051ACG 25347.06596431  .00027304  00000+0  74670-2 0  9998",
        "tle_line2": "2 46974  86.2983 105.1329 0095674 185.9471 174.0604 14.44392499575137"
      },
      "geometry": {
        "type": "Point",
        "coordinates": [
          -78.92561129768778,
          45.25176762879674
        ]
      }
    },
    {
      "type": "Feature",
      "properties": {
        "norad_id": 46979,
        "name": "IRIDIUM 33 DEB",
        "group": "iridium-33-debris",
        "lat": -47.3794017759022,
        "lon": 44.07371005113626,
        "alt_km": 607.6912237911038,
        "timestamp": "2025-12-13T18:50:04.816317+00:00",
        "meta_object_name": "IRIDIUM 33 DEB",
        "meta_object_id": "1997-051ACM",
        "meta_epoch": "2025-12-08T11:38:51.411264",
        "meta_mean_motion": 14.88966671,
        "meta_eccentricity": 0.00280118,
        "meta_inclination": 86.3345,
        "meta_ra_of_asc_node": 50.5282,
        "meta_arg_of_pericenter": 237.8713,
        "meta_mean_anomaly": 121.9794,
        "meta_ephemeris_type": 0,
        "meta_classification_type": "U",
        "meta_norad_cat_id": 46979,
        "meta_element_set_no": 999,
        "meta_rev_at_epoch": 35365,
        "meta_bstar": 0.0048738532,
        "meta_mean_motion_dot": 0.00046401,
        "meta_mean_motion_ddot": 0,
        "tle_line1": "1 46979U 97051ACM 25342.48531726  .00046401  00000+0  48739-2 0  9996",
        "tle_line2": "2 46979  86.3345  50.5282 0028011 237.8713 121.9794 14.88966671353652"
      },
      "geometry": {
        "type": "Point",
        "coordinates": [
          44.07371005113626,
          -47.3794017759022
        ]
      }
    }
  ]
}